[{"OBJECT_NAME":"GEESAT-6 08","OBJECT_ID":"2025-214J","EPOCH":"2026-03-09T22:14:05.578944","MEAN_MOTION":14.83021735,"ECCENTRICITY":0.00096397,"INCLINATION":49.9907,"RA_OF_ASC_NODE":48.1729,"ARG_OF_PERICENTER":195.6006,"MEAN_ANOMALY":164.4636,"EPHEMERIS_TYPE":0,"CLASSIFICATION_TYPE":"U","NORAD_CAT_ID":65720,"ELEMENT_SET_NO":999,"REV_AT_EPOCH":2477,"BSTAR":0.00036802718,"MEAN_MOTION_DOT":2.801e-5,"MEAN_MOTION_DDOT":0},{"OBJECT_NAME":"FENGYUN 1C DEB","OBJECT_ID":"1999-025BZN","EPOCH":"2026-03-03T04:13:23.729376","MEAN_MOTION":14.87557859,"ECCENTRICITY":0.01425437,"INCLINATION":98.383,"RA_OF_ASC_NODE":189.7124,"ARG_OF_PERICENTER":136.8849,"MEAN_ANOMALY":224.3635,"EPHEMERIS_TYPE":0,"CLASSIFICATION_TYPE":"U","NORAD_CAT_ID":31608,"ELEMENT_SET_NO":999,"REV_AT_EPOCH":99828,"BSTAR":0.0013394908,"MEAN_MOTION_DOT":0.00014627,"MEAN_MOTION_DDOT":0}]
